OBJECT_NAME,OBJECT_ID,EPOCH,MEAN_MOTION,ECCENTRICITY,INCLINATION,RA_OF_ASC_NODE,ARG_OF_PERICENTER,MEAN_ANOMALY,EPHEMERIS_TYPE,CLASSIFICATION_TYPE,NORAD_CAT_ID,ELEMENT_SET_NO,REV_AT_EPOCH,BSTAR,MEAN_MOTION_DOT,MEAN_MOTION_DDOT
HAWK-5A,2022-057AB,2026-07-01T22:35:00.653856,15.51916848,.00044986,97.6620,342.7472,27.7679,332.3812,0,U,52757,999,22863,.37006507E-3,.22132E-3,0
HAWK-6B,2023-011A,2026-07-01T22:29:26.988288,15.23060043,.00020216,40.4983,266.0356,161.3332,198.7552,0,U,55324,999,19009,.20399636E-3,.4714E-4,0
HAWK-6C,2023-011C,2026-07-01T22:28:33.040992,15.23057848,.00023815,40.4968,262.8757,139.4806,220.6180,0,U,55326,999,19010,.2096184E-3,.4849E-4,0
HAWK-6A,2023-011D,2026-07-01T22:28:36.160896,15.23058804,.00019386,40.4979,264.5015,137.9484,222.1474,0,U,55327,999,19010,.2109256E-3,.4881E-4,0
HAWK-7A,2023-054P,2026-07-01T17:16:02.923392,15.27511037,.00030246,97.2684,69.6876,22.6662,337.4711,0,U,56191,999,17924,.2409202E-3,.6413E-4,0
HAWK-7B,2023-054R,2026-07-01T21:58:56.871264,15.27512314,.00027324,97.2710,68.1481,41.5115,318.6331,0,U,56193,999,17927,.25066193E-3,.6675E-4,0
HAWK-7C,2023-054Y,2026-07-01T17:15:47.127744,15.27508680,.00024914,97.2687,68.7206,30.8574,329.2812,0,U,56200,999,17924,.234538E-3,.624E-4,0
