HAWK-5A                 
1 52757U 22057AB  26182.94097979  .00022132  00000+0  37007-3 0  9994
2 52757  97.6620 342.7472 0004498  27.7679 332.3812 15.51916848228631
HAWK-6B                 
1 55324U 23011A   26182.93711792  .00004714  00000+0  20400-3 0  9998
2 55324  40.4983 266.0356 0002021 161.3332 198.7552 15.23060043190091
HAWK-6C                 
1 55326U 23011C   26182.93649353  .00004849  00000+0  20962-3 0  9995
2 55326  40.4968 262.8757 0002381 139.4806 220.6180 15.23057848190109
HAWK-6A                 
1 55327U 23011D   26182.93652964  .00004881  00000+0  21093-3 0  9990
2 55327  40.4979 264.5015 0001938 137.9484 222.1474 15.23058804190106
HAWK-7A                 
1 56191U 23054P   26182.71947828  .00006413  00000+0  24092-3 0  9994
2 56191  97.2684  69.6876 0003024  22.6662 337.4711 15.27511037179246
HAWK-7B                 
1 56193U 23054R   26182.91593601  .00006675  00000+0  25066-3 0  9996
2 56193  97.2710  68.1481 0002732  41.5115 318.6331 15.27512314179273
HAWK-7C                 
1 56200U 23054Y   26182.71929546  .00006240  00000+0  23454-3 0  9991
2 56200  97.2687  68.7206 0002491  30.8574 329.2812 15.27508680179248
